{
  "norad_id": 58140,
  "name": "STARLINK-30780",
  "history": [
    {
      "epoch": "2026-03-28T13:08:14.923680",
      "apogee_km": 483.59515877544527,
      "perigee_km": 482.57558113127016,
      "latitude_deg": -19.32379870511718,
      "longitude_deg": 46.54991520009935,
      "semi_major_axis_km": 6861.222369953357,
      "eccentricity": 7.43e-05,
      "inclination_deg": 43.0029,
      "raan_deg": 25.7698,
      "arg_perigee_deg": 278.3371,
      "mean_anomaly_deg": 81.7396,
      "mean_motion_rev_day": 15.27567886
    }
  ]
}