{"fetched_at":"2026-03-29T02:12:04Z","count":15717,"tles":[{"name":"STARLINK-30780","line1":"1 58140U 23162Y   26087.54739496 -.00004379  00000+0 -14977-3 0  9997","line2":"2 58140  43.0029  25.7698 0000743 278.3371  81.7396 15.27567886135198","category":"Starlink"}]}